{
  "type": "FeatureCollection",
  "features": [
    {
      "type": "Feature",
      "properties": {
        "norad_id": 25590,
        "name": "COSMOS 2361",
        "group": "musson",
        "lat": -72.38649056439925,
        "lon": -37.5533375622275,
        "alt_km": 973.9913164097316,
        "timestamp": "2025-12-10T21:43:22.357697+00:00",
        "meta_object_name": "COSMOS 2361",
        "meta_object_id": "1998-076A",
        "meta_epoch": "2025-12-10T12:08:02.704704",
        "meta_mean_motion": 13.73217127,
        "meta_eccentricity": 0.00300567,
        "meta_inclination": 82.9338,
        "meta_ra_of_asc_node": 345.739,
        "meta_arg_of_pericenter": 272.0915,
        "meta_mean_anomaly": 200.0139,
        "meta_ephemeris_type": 0,
        "meta_classification_type": "U",
        "meta_norad_cat_id": 25590,
        "meta_element_set_no": 999,
        "meta_rev_at_epoch": 35080,
        "meta_bstar": 8.5020317e-05,
        "meta_mean_motion_dot": 9.4e-07,
        "meta_mean_motion_ddot": 0,
        "tle_line1": "1 25590U 98076A   25344.50558686  .00000094  00000+0  85020-4 0  9993",
        "tle_line2": "2 25590  82.9338 345.7390 0030056 272.0915 200.0139 13.73217127350802"
      },
      "geometry": {
        "type": "Point",
        "coordinates": [
          -37.5533375622275,
          -72.38649056439925
        ]
      }
    },
    {
      "type": "Feature",
      "properties": {
        "norad_id": 26818,
        "name": "COSMOS 2378",
        "group": "musson",
        "lat": -7.186746154329031,
        "lon": 0.18856371186207982,
        "alt_km": 1007.4260793623989,
        "timestamp": "2025-12-10T21:43:22.357718+00:00",
        "meta_object_name": "COSMOS 2378",
        "meta_object_id": "2001-023A",
        "meta_epoch": "2025-12-10T11:48:43.250400",
        "meta_mean_motion": 13.74141732,
        "meta_eccentricity": 0.00322803,
        "meta_inclination": 82.9273,
        "meta_ra_of_asc_node": 1.3916,
        "meta_arg_of_pericenter": 211.2505,
        "meta_mean_anomaly": 259.7094,
        "meta_ephemeris_type": 0,
        "meta_classification_type": "U",
        "meta_norad_cat_id": 26818,
        "meta_element_set_no": 999,
        "meta_rev_at_epoch": 22892,
        "meta_bstar": 5.9731447e-05,
        "meta_mean_motion_dot": 7.1e-07,
        "meta_mean_motion_ddot": 0,
        "tle_line1": "1 26818U 01023A   25344.49216725  .00000071  00000+0  59731-4 0  9991",
        "tle_line2": "2 26818  82.9273   1.3916 0032280 211.2505 259.7094 13.74141732228921"
      },
      "geometry": {
        "type": "Point",
        "coordinates": [
          0.18856371186207982,
          -7.186746154329031
        ]
      }
    },
    {
      "type": "Feature",
      "properties": {
        "norad_id": 27436,
        "name": "COSMOS 2389",
        "group": "musson",
        "lat": -13.335893909872611,
        "lon": 130.02392726577068,
        "alt_km": 1006.9117378526034,
        "timestamp": "2025-12-10T21:43:22.357731+00:00",
        "meta_object_name": "COSMOS 2389",
        "meta_object_id": "2002-026A",
        "meta_epoch": "2025-12-10T10:54:24.322752",
        "meta_mean_motion": 13.75154267,
        "meta_eccentricity": 0.00476693,
        "meta_inclination": 82.95,
        "meta_ra_of_asc_node": 308.6765,
        "meta_arg_of_pericenter": 66.9463,
        "meta_mean_anomaly": 56.1274,
        "meta_ephemeris_type": 0,
        "meta_classification_type": "U",
        "meta_norad_cat_id": 27436,
        "meta_element_set_no": 999,
        "meta_rev_at_epoch": 18117,
        "meta_bstar": 9.1929717e-05,
        "meta_mean_motion_dot": 1.04e-06,
        "meta_mean_motion_ddot": 0,
        "tle_line1": "1 27436U 02026A   25344.45444818  .00000104  00000+0  91930-4 0  9998",
        "tle_line2": "2 27436  82.9500 308.6765 0047669  66.9463  56.1274 13.75154267181173"
      },
      "geometry": {
        "type": "Point",
        "coordinates": [
          130.02392726577068,
          -13.335893909872611
        ]
      }
    },
    {
      "type": "Feature",
      "properties": {
        "norad_id": 27818,
        "name": "COSMOS 2398",
        "group": "musson",
        "lat": 15.6706092182714,
        "lon": 92.06033307943477,
        "alt_km": 975.4283947859685,
        "timestamp": "2025-12-10T21:43:22.357743+00:00",
        "meta_object_name": "COSMOS 2398",
        "meta_object_id": "2003-023A",
        "meta_epoch": "2025-12-10T13:01:08.735808",
        "meta_mean_motion": 13.72385409,
        "meta_eccentricity": 0.00325067,
        "meta_inclination": 82.9484,
        "meta_ra_of_asc_node": 274.3174,
        "meta_arg_of_pericenter": 117.6704,
        "meta_mean_anomaly": 55.4197,
        "meta_ephemeris_type": 0,
        "meta_classification_type": "U",
        "meta_norad_cat_id": 27818,
        "meta_element_set_no": 999,
        "meta_rev_at_epoch": 12786,
        "meta_bstar": 9.8488857e-05,
        "meta_mean_motion_dot": 1.06e-06,
        "meta_mean_motion_ddot": 0,
        "tle_line1": "1 27818U 03023A   25344.54246222  .00000106  00000+0  98489-4 0  9997",
        "tle_line2": "2 27818  82.9484 274.3174 0032506 117.6704  55.4197 13.72385409127860"
      },
      "geometry": {
        "type": "Point",
        "coordinates": [
          92.06033307943477,
          15.6706092182714
        ]
      }
    },
    {
      "type": "Feature",
      "properties": {
        "norad_id": 28380,
        "name": "COSMOS 2407",
        "group": "musson",
        "lat": -26.702696802975353,
        "lon": -149.312066476147,
        "alt_km": 980.7806042669945,
        "timestamp": "2025-12-10T21:43:22.357754+00:00",
        "meta_object_name": "COSMOS 2407",
        "meta_object_id": "2004-028A",
        "meta_epoch": "2025-12-10T15:00:04.529952",
        "meta_mean_motion": 13.76313347,
        "meta_eccentricity": 0.00404009,
        "meta_inclination": 82.9609,
        "meta_ra_of_asc_node": 214.4584,
        "meta_arg_of_pericenter": 60.5884,
        "meta_mean_anomaly": 326.1848,
        "meta_ephemeris_type": 0,
        "meta_classification_type": "U",
        "meta_norad_cat_id": 28380,
        "meta_element_set_no": 999,
        "meta_rev_at_epoch": 7394,
        "meta_bstar": 7.1765852e-05,
        "meta_mean_motion_dot": 8.6e-07,
        "meta_mean_motion_ddot": 0,
        "tle_line1": "1 28380U 04028A   25344.62505243  .00000086  00000+0  71766-4 0  9994",
        "tle_line2": "2 28380  82.9609 214.4584 0040400  60.5884 326.1848 13.76313347 73947"
      },
      "geometry": {
        "type": "Point",
        "coordinates": [
          -149.312066476147,
          -26.702696802975353
        ]
      }
    },
    {
      "type": "Feature",
      "properties": {
        "norad_id": 28521,
        "name": "COSMOS 2414",
        "group": "musson",
        "lat": 18.960018284431623,
        "lon": 3.6105395944462177,
        "alt_km": 907.4793870891917,
        "timestamp": "2025-12-10T21:43:22.357765+00:00",
        "meta_object_name": "COSMOS 2414",
        "meta_object_id": "2005-002A",
        "meta_epoch": "2025-12-10T12:18:05.361120",
        "meta_mean_motion": 13.87902523,
        "meta_eccentricity": 0.00407672,
        "meta_inclination": 82.9493,
        "meta_ra_of_asc_node": 186.3442,
        "meta_arg_of_pericenter": 145.9271,
        "meta_mean_anomaly": 214.4522,
        "meta_ephemeris_type": 0,
        "meta_classification_type": "U",
        "meta_norad_cat_id": 28521,
        "meta_element_set_no": 999,
        "meta_rev_at_epoch": 5764,
        "meta_bstar": 7.192649e-05,
        "meta_mean_motion_dot": 1.02e-06,
        "meta_mean_motion_ddot": 0,
        "tle_line1": "1 28521U 05002A   25344.51256205  .00000102  00000+0  71926-4 0  9990",
        "tle_line2": "2 28521  82.9493 186.3442 0040767 145.9271 214.4522 13.87902523 57648"
      },
      "geometry": {
        "type": "Point",
        "coordinates": [
          3.6105395944462177,
          18.960018284431623
        ]
      }
    },
    {
      "type": "Feature",
      "properties": {
        "norad_id": 32052,
        "name": "COSMOS 2429",
        "group": "musson",
        "lat": 18.35072178105978,
        "lon": -12.99627082497743,
        "alt_km": 954.960382276654,
        "timestamp": "2025-12-10T21:43:22.357775+00:00",
        "meta_object_name": "COSMOS 2429",
        "meta_object_id": "2007-038A",
        "meta_epoch": "2025-12-10T11:09:22.781664",
        "meta_mean_motion": 13.75149052,
        "meta_eccentricity": 0.00393507,
        "meta_inclination": 82.9802,
        "meta_ra_of_asc_node": 344.9859,
        "meta_arg_of_pericenter": 44.061,
        "meta_mean_anomaly": 316.3671,
        "meta_ephemeris_type": 0,
        "meta_classification_type": "U",
        "meta_norad_cat_id": 32052,
        "meta_element_set_no": 999,
        "meta_rev_at_epoch": 91571,
        "meta_bstar": 7.5521775e-05,
        "meta_mean_motion_dot": 8.8e-07,
        "meta_mean_motion_ddot": 0,
        "tle_line1": "1 32052U 07038A   25344.46484701  .00000088  00000+0  75522-4 0  9992",
        "tle_line2": "2 32052  82.9802 344.9859 0039350  44.0610 316.3671 13.75149052915717"
      },
      "geometry": {
        "type": "Point",
        "coordinates": [
          -12.99627082497743,
          18.35072178105978
        ]
      }
    },
    {
      "type": "Feature",
      "properties": {
        "norad_id": 35635,
        "name": "COSMOS 2454",
        "group": "musson",
        "lat": -17.676682843255524,
        "lon": -7.705840544699381,
        "alt_km": 941.0594545315153,
        "timestamp": "2025-12-10T21:43:22.357786+00:00",
        "meta_object_name": "COSMOS 2454",
        "meta_object_id": "2009-039A",
        "meta_epoch": "2025-12-10T12:24:35.911584",
        "meta_mean_motion": 13.89928109,
        "meta_eccentricity": 0.00204802,
        "meta_inclination": 82.9553,
        "meta_ra_of_asc_node": 170.3299,
        "meta_arg_of_pericenter": 79.6873,
        "meta_mean_anomaly": 337.28,
        "meta_ephemeris_type": 0,
        "meta_classification_type": "U",
        "meta_norad_cat_id": 35635,
        "meta_element_set_no": 999,
        "meta_rev_at_epoch": 83119,
        "meta_bstar": 6.168139e-05,
        "meta_mean_motion_dot": 9.2e-07,
        "meta_mean_motion_ddot": 0,
        "tle_line1": "1 35635U 09039A   25344.51708231  .00000092  00000+0  61681-4 0  9994",
        "tle_line2": "2 35635  82.9553 170.3299 0020480  79.6873 337.2800 13.89928109831196"
      },
      "geometry": {
        "type": "Point",
        "coordinates": [
          -7.705840544699381,
          -17.676682843255524
        ]
      }
    },
    {
      "type": "Feature",
      "properties": {
        "norad_id": 36519,
        "name": "COSMOS 2463",
        "group": "musson",
        "lat": -1.4373717129156067,
        "lon": 27.883441623411116,
        "alt_km": 985.9279591902032,
        "timestamp": "2025-12-10T21:43:22.357796+00:00",
        "meta_object_name": "COSMOS 2463",
        "meta_object_id": "2010-017A",
        "meta_epoch": "2025-12-10T11:46:29.650080",
        "meta_mean_motion": 13.71648963,
        "meta_eccentricity": 0.00348363,
        "meta_inclination": 82.9615,
        "meta_ra_of_asc_node": 28.3655,
        "meta_arg_of_pericenter": 294.5247,
        "meta_mean_anomaly": 178.1615,
        "meta_ephemeris_type": 0,
        "meta_classification_type": "U",
        "meta_norad_cat_id": 36519,
        "meta_element_set_no": 999,
        "meta_rev_at_epoch": 78206,
        "meta_bstar": 6.8221398e-05,
        "meta_mean_motion_dot": 7.6e-07,
        "meta_mean_motion_ddot": 0,
        "tle_line1": "1 36519U 10017A   25344.49062095  .00000076  00000+0  68221-4 0  9991",
        "tle_line2": "2 36519  82.9615  28.3655 0034836 294.5247 178.1615 13.71648963782063"
      },
      "geometry": {
        "type": "Point",
        "coordinates": [
          27.883441623411116,
          -1.4373717129156067
        ]
      }
    }
  ]
}